#dP2019  5 10  0  0  0.00000000      96 __u+U ITR00 FIT  IAC
## 2052 432000.00000000   900.00000000 58613 0.0000000000000
+   93   C01C02C03C04C05C06C07C08C09C10C11C12C13C14C16E01E02
+        E03E04E07E08E09E11E12E13E14E15E18E19E21E24E25E26E27
+        E30E31E33E36G01G02G03G04G05G06G07G08G09G10G11G12G13
+        G14G15G16G17G18G19G20G21G22G23G24G25G26G27G28G29G30
+        G31G32R01R02R03R04R05R07R08R09R10R11R13R14R15R16R17
+        R18R19R20R21R22R23R24R26  0  0  0  0  0  0  0  0  0
++        13 12 13  0 12  9  9  9  8  8  8  8  8  8  8  5  5
++         5  6  5  5  5  6  6  5  5  5  6  6  5  5  6  5  5
++         5  6  5  6  4  3  4  4  3  4  4  4  3  4  4  3  4
++         4  4  4  4  4  4  4  3  4  4  4  3  4  4  4  4  4
++         4  4  5  5  5  6  6  6  6  6  5  5  5  5  5  6  5
++         5  6  5  6  5  5  5  8  0  0  0  0  0  0  0  0  0
%c M  cc GPS ccc cccc cccc cccc cccc ccccc ccccc ccccc ccccc
%c cc cc ccc ccc cccc cccc cccc cccc ccccc ccccc ccccc ccccc
%f  0.0000000  0.000000000  0.00000000000  0.000000000000000
%f  0.0000000  0.000000000  0.00000000000  0.000000000000000
%i    0    0    0    0      0      0      0      0         0
%i    0    0    0    0      0      0      0      0         0
/*                                                          
/*   RSA / INFORMATION & ANALYSIS CENTER (IAC) OF MCC       
/*   ULTRA-RAPID DETERMINATION                              
/* PCV:IGS14_2045 OL/AL:FES2004  NONE     YN ORB:CoN CLK:CoN
*  2019 05 10 19 45  0.00000000
PC01 -32352.325064  27040.849508   -800.448974    567.638952
PC02   4397.284390  41925.978247    326.542581    167.843274
PC03 -14672.223386  39554.658335   -531.205617    296.818932
PC04      0.000000      0.000000      0.000000 999999.999999
PC05  21885.002837  36073.901253    314.772387   -342.556159
PC06 -13891.866219  20971.626846  34142.547627    815.048108
PC07 -24617.189539  32790.334778 -10682.708118     -7.740926
PC08  -8361.840101  34593.618175 -22314.736145    156.004839
PC09   4830.728314  27406.399441  31992.597297    752.901684
PC10 -11314.153825  33790.827230 -22709.931037   -739.976891
PC11  19645.313743   1808.440145  19766.927973   -145.291441
PC12  17172.614417  21563.804432  -4013.337063    655.109596
PC13   1496.653684  41197.587471  -8217.288892   -704.791081
PC14  25762.349879   1126.630338  10790.039454    624.377644
PC16  -8954.494452  22459.006975  34571.253485   -722.542754
PE01  -1885.775110 -20322.852285  21430.983266   -601.873418
PE02   1941.251685  20291.533366 -21466.901122     59.672018
PE03  12541.971934  16874.328568  20837.996283   -164.643541
PE04 -27615.092413  -8640.932973  -6228.447654   -279.083317
PE07  26565.757234  -4729.019636 -12144.067784   -185.093878
PE08  27712.815298   8339.071638   6193.780064   6358.364744
PE09 -26514.439054   4904.814514  12240.857995   6443.649435
PE11 -15191.815157   6162.979922 -24648.038538   5696.700086
PE12 -18544.624531 -15464.911994 -17098.378992   6402.798501
PE13  15177.323967  -5991.587214  24702.662361    386.857497
PE14 -18097.399553  11870.043355 -23946.353019   -561.730181
PE15  18623.748051  15093.673902  17379.460610    910.904395
PE18  17211.720016  -4472.881961  15962.841095   -659.582361
PE19 -10522.035384 -17030.107710 -21792.971746     -6.512966
PE21  14556.401432 -25008.647546   6212.672809   -533.310400
PE24 -22382.543124  15014.474148  12205.128923   6088.237101
PE25 -14592.647529  25007.464945  -6168.166044   1808.507870
PE26   3132.683108 -23669.909560  17497.153164   4584.759986
PE27  22314.405502 -14853.368972 -12557.261082    472.625151
PE30  17161.553856   3828.122223 -23826.824390   4882.605105
PE31 -16970.742018  -3989.238073  23923.653110   -464.626001
PE33 -11165.520535 -27404.990236    155.221200   -470.266780
PE36  -2811.236052  23659.100345 -17566.178404    713.828639
PG01  13363.706729 -10605.552204  20083.267087    -13.263247
PG02 -13788.079320 -13579.572694 -17655.772038   -209.940779
PG03  23366.728971 -12256.363872   2568.152138    188.085430
PG04     61.611660 -16688.813196 -20649.593699    158.914970
PG05 -19385.274524  -2871.817230 -18139.777405      0.955054
PG06  -7081.138664 -23785.099745  -9367.596558    209.008928
PG07   7550.352048 -22521.219071 -11121.398854    -21.624854
PG08  23789.349599   3534.219942  11532.660166   -143.088866
PG09   6833.246491 -13818.397792 -21668.329934    413.748994
PG10  -1198.207528  17255.024446  20164.529872     50.063111
PG11  14892.394434  -6075.527565  20598.804728   -609.447166
PG12 -24167.269797  10170.521116   3379.495921    243.662977
PG13 -23033.105961 -12327.476996   4812.921996    -64.221334
PG14  16418.345328  18751.359258   9762.125779    -81.032075
PG15 -23849.446460   -526.879231  11812.874028   -313.748088
PG16  19677.469615   3464.026100 -17904.013619    -39.061700
PG17  -9127.102460 -18757.168676  16899.857143     52.605526
PG18  15136.643635   -423.136262  21335.994349     51.972832
PG19 -15815.979474 -18692.521459   9885.194177   -320.583441
PG20  -9598.762104  20566.472221  13572.462798    524.622684
PG21  -2019.166627  25703.604614  -5889.484418   -195.421572
PG22  23444.518904  -7517.852124  10103.477759   -698.640633
PG23  18627.098645  -5123.711410 -18062.307459   -186.765829
PG24 -14686.508687   7050.281754  20770.654480    -65.919496
PG25 -18202.719902  17521.152453  -7970.288374   -754.881730
PG26  11267.624308  10921.551108 -21464.597165    198.002573
PG27  23784.045530  12156.434355    824.894910   -128.640361
PG28   3362.614694 -17095.401129  20682.380844    767.824833
PG29 -11790.988551   9645.001132 -21791.513426    204.866652
PG30    732.736361 -26440.400824   -464.528428   -102.160645
PG31   7552.857671  22808.406472 -10814.982471     39.109536
PG32  12111.534252  18393.589683  14987.381808    -93.641174
PR01  21088.732904   4857.579511  13496.813179     43.601949
PR02  24257.344511  -4566.440447  -6492.752421    367.911365
PR03  11667.027040 -10383.098384 -20135.869113     -5.042439
PR04  -8295.411115  -9948.738594 -21949.317417    305.769572
PR05 -22422.098836  -3939.946239 -11471.244092     27.842502
PR07 -11050.999920  10495.505406  20483.677858    -19.756724
PR08   7492.170682  10149.245129  22228.859712     17.829801
PR09 -15141.673637  14836.723511  14249.015124     68.976166
PR10 -11454.433136  22838.122250   -399.205523     49.510415
PR11   -353.220793  19054.946390 -16970.587218    -65.684351
PR13  14800.510846 -13541.349082 -15773.856505    -23.483065
PR14  11175.313467 -22916.507080    488.211265     38.811419
PR15   1032.056573 -19469.265645  16464.606899    101.876548
PR16  -9991.813844  -4683.394747  22970.649391      9.634407
PR17   1135.142766 -15279.576682  20410.514530    226.849613
PR18 -10447.226268 -22023.209915   7419.287280     -7.306214
PR19 -15998.300595 -17367.647710  -9642.552381    -29.973238
PR20 -12331.274040   -876.715122 -22296.485808   -377.652353
PR21   -643.559593  15648.861352 -20127.927203    -47.272648
PR22  11880.753761  22148.845090  -4738.199818    -18.526039
PR23  16401.464281  13408.666595  14206.828208    227.139324
PR24  11554.775239   -996.925215  22696.224020   -180.298650
PR26 -13595.412552  -3214.059029 -21336.074223     -7.518641
EOF
